{
  "type": "FeatureCollection",
  "features": [
    {
      "type": "Feature",
      "properties": {
        "upi": "1/01/03/01/05/0001",
        "zoning": "residential"
      },
      "geometry": {
        "type": "Polygon",
        "coordinates": [
          [
            [
              30.101611,
              -1.93831
            ],
            [
              30.102212,
              -1.938074
            ],
            [
              30.1023607,
              -1.937361
            ],
            [
              30.102576,
              -1.936669
            ],
            [
              30.102373,
              -1.936583
            ],
            [
              30.102147,
              -1.936691
            ],
            [
              30.101858,
              -1.93668
            ],
            [
              30.101493,
              -1.937055
            ],
            [
              30.101085,
              -1.937398
            ],
            [
              30.101611,
              -1.93831
            ]
          ]
        ]
      }
    },
    {
      "type": "Feature",
      "properties": {
        "upi": "1/01/03/03/02/0002",
        "zoning": "restricted"
      },
      "geometry": {
        "type": "Polygon",
        "coordinates": [
          [
            [
              30.100592,
              -1.937902
            ],
            [
              30.101149,
              -1.937731
            ],
            [
              30.100291,
              -1.936659
            ],
            [
              30.099647,
              -1.936122
            ],
            [
              30.099604,
              -1.936637
            ],
            [
              30.099283,
              -1.937238
            ],
            [
              30.099991,
              -1.937345
            ],
            [
              30.100592,
              -1.937902
            ]
          ]
        ]
      }
    },
    {
      "type": "Feature",
      "properties": {
        "upi": "1/01/03/03/07/0003",
        "zoning": "restricted"
      },
      "geometry": {
        "type": "Polygon",
        "coordinates": [
          [
            [
              30.10101,
              -1.937323
            ],
            [
              30.101793,
              -1.936626
            ],
            [
              30.101343,
              -1.936187
            ],
            [
              30.100602,
              -1.936787
            ],
            [
              30.10101,
              -1.937323
            ]
          ]
        ]
      }
    },
    {
      "type": "Feature",
      "properties": {
        "upi": "1/01/03/02/01/0004",
        "zoning": "commercial"
      },
      "geometry": {
        "type": "Polygon",
        "coordinates": [
          [
            [
              30.098102,
              -1.936037
            ],
            [
              30.098467,
              -1.93609
            ],
            [
              30.099283,
              -1.93579
            ],
            [
              30.099047,
              -1.935468
            ],
            [
              30.098102,
              -1.936037
            ]
          ]
        ]
      }
    },
    {
      "type": "Feature",
      "properties": {
        "upi": "1/01/03/01/07/0005",
        "zoning": "mixed_use"
      },
      "geometry": {
        "type": "Polygon",
        "coordinates": [
          [
            [
              30.096761,
              -1.935694
            ],
            [
              30.096482,
              -1.936133
            ],
            [
              30.098156,
              -1.936991
            ],
            [
              30.09864,
              -1.93725
            ],
            [
              30.099166,
              -1.937261
            ],
            [
              30.099477,
              -1.936693
            ],
            [
              30.099584,
              -1.936157
            ],
            [
              30.099359,
              -1.935867
            ],
            [
              30.098501,
              -1.936178
            ],
            [
              30.097889,
              -1.936028
            ],
            [
              30.096761,
              -1.935694
            ]
          ]
        ]
      }
    },
    {
      "type": "Feature",
      "properties": {
        "upi": "1/01/03/03/04/0006",
        "zoning": "commercial"
      },
      "geometry": {
        "type": "Polygon",
        "coordinates": [
          [
            [
              30.1022555,
              -1.9380857
            ],
            [
              30.1025767,
              -1.9379525
            ],
            [
              30.1026661,
              -1.937914
            ],
            [
              30.1028224,
              -1.9378985
            ],
            [
              30.1028284,
              -1.9379033
            ],
            [
              30.1028322,
              -1.9379113
            ],
            [
              30.1028301,
              -1.93792
            ],
            [
              30.1028279,
              -1.9379247
            ],
            [
              30.1028246,
              -1.9379274
            ],
            [
              30.102669,
              -1.9379432
            ],
            [
              30.1025809,
              -1.9379798
            ],
            [
              30.102494,
              -1.938014
            ],
            [
              30.1022298,
              -1.9381261
            ],
            [
              30.1016264,
              -1.9384139
            ],
            [
              30.1020763,
              -1.9391673
            ],
            [
              30.1024631,
              -1.9389886
            ],
            [
              30.102642,
              -1.9389113
            ],
            [
              30.1028342,
              -1.938853
            ],
            [
              30.1029594,
              -1.9388423
            ],
            [
              30.103075,
              -1.9388518
            ],
            [
              30.1032914,
              -1.9388916
            ],
            [
              30.1035787,
              -1.9388777
            ],
            [
              30.1037223,
              -1.9388664
            ],
            [
              30.1038736,
              -1.9388706
            ],
            [
              30.103806,
              -1.9386864
            ],
            [
              30.1037751,
              -1.938588
            ],
            [
              30.1037596,
              -1.9385384
            ],
            [
              30.1037515,
              -1.9385141
            ],
            [
              30.1037394,
              -1.9384981
            ],
            [
              30.1037079,
              -1.9384566
            ],
            [
              30.1036257,
              -1.9384067
            ],
            [
              30.1035103,
              -1.9383653
            ],
            [
              30.1033135,
              -1.9382878
            ],
            [
              30.1031478,
              -1.9385089
            ],
            [
              30.103143,
              -1.9385101
            ],
            [
              30.1031383,
              -1.9385098
            ],
            [
              30.1031346,
              -1.9385047
            ],
            [
              30.103134,
              -1.9384994
            ],
            [
              30.1031896,
              -1.9384166
            ],
            [
              30.1032443,
              -1.9383382
            ],
            [
              30.1033015,
              -1.9382566
            ],
            [
              30.1033303,
              -1.9382145
            ],
            [
              30.1033593,
              -1.9381714
            ],
            [
              30.1034816,
              -1.9380043
            ],
            [
              30.1035455,
              -1.9379173
            ],
            [
              30.1035816,
              -1.9378781
            ],
            [
              30.103616,
              -1.9378481
            ],
            [
              30.1036454,
              -1.9378209
            ],
            [
              30.1036732,
              -1.937802
            ],
            [
              30.1037405,
              -1.9377641
            ],
            [
              30.1038772,
              -1.9376965
            ],
            [
              30.1041757,
              -1.9375649
            ],
            [
              30.1040064,
              -1.9369765
            ],
            [
              30.1037255,
              -1.9370517
            ],
            [
              30.103582,
              -1.9370733
            ],
            [
              30.1034433,
              -1.9370731
            ],
            [
              30.1033253,
              -1.9370477
            ],
            [
              30.1032109,
              -1.936999
            ],
            [
              30.1030365,
              -1.9368828
            ],
            [
              30.1028376,
              -1.9367522
            ],
            [
              30.1026425,
              -1.9366341
            ],
            [
              30.1025611,
              -1.9369168
            ],
            [
              30.102426,
              -1.9372403
            ],
            [
              30.1025166,
              -1.9372237
            ],
            [
              30.1026201,
              -1.9372162
            ],
            [
              30.1027157,
              -1.9372467
            ],
            [
              30.1027834,
              -1.9372766
            ],
            [
              30.1028613,
              -1.9373165
            ],
            [
              30.1028623,
              -1.937324
            ],
            [
              30.1028596,
              -1.9373301
            ],
            [
              30.1028545,
              -1.9373331
            ],
            [
              30.1028504,
              -1.9373344
            ],
            [
              30.1027494,
              -1.9372899
            ],
            [
              30.1027146,
              -1.9372722
            ],
            [
              30.1026815,
              -1.9372627
            ],
            [
              30.1026189,
              -1.9372445
            ],
            [
              30.1025241,
              -1.9372482
            ],
            [
              30.1024112,
              -1.9372725
            ],
            [
              30.1023747,
              -1.9373693
            ],
            [
              30.102358,
              -1.937504
            ],
            [
              30.1023527,
              -1.9375429
            ],
            [
              30.102347,
              -1.9375704
            ],
            [
              30.1023302,
              -1.9376332
            ],
            [
              30.1022943,
              -1.9378196
            ],
            [
              30.1022555,
              -1.9380857
            ]
          ]
        ]
      }
    },
    {
      "type": "Feature",
      "properties": {
        "upi": "1/01/03/04/01/0007",
        "zoning": "residential"
      },
      "geometry": {
        "type": "Polygon",
        "coordinates": [
          [
            [
              30.101602,
              -1.935578
            ],
            [
              30.101612,
              -1.935492
            ],
            [
              30.1014221,
              -1.9354596
            ],
            [
              30.1012411,
              -1.9354483
            ],
            [
              30.1008801,
              -1.9354617
            ],
            [
              30.1004793,
              -1.9353616
            ],
            [
              30.1002461,
              -1.9352311
            ],
            [
              30.0998835,
              -1.9356116
            ],
            [
              30.0995026,
              -1.9358848
            ],
            [
              30.100486,
              -1.936618
            ],
            [
              30.101183,
              -1.936179
            ],
            [
              30.101441,
              -1.936093
            ],
            [
              30.101602,
              -1.935578
            ]
          ]
        ]
      }
    },
    {
      "type": "Feature",
      "properties": {
        "upi": "1/01/03/03/03/0008",
        "zoning": "residential"
      },
      "geometry": {
        "type": "Polygon",
        "coordinates": [
          [
            [
              30.096392,
              -1.934636
            ],
            [
              30.09654,
              -1.935257
            ],
            [
              30.096807,
              -1.935582
            ],
            [
              30.098034,
              -1.935967
            ],
            [
              30.098952,
              -1.935434
            ],
            [
              30.098597,
              -1.934651
            ],
            [
              30.097975,
              -1.934562
            ],
            [
              30.096392,
              -1.934636
            ]
          ]
        ]
      }
    },
    {
      "type": "Feature",
      "properties": {
        "upi": "1/01/03/03/07/0009",
        "zoning": "mixed_use"
      },
      "geometry": {
        "type": "Polygon",
        "coordinates": [
          [
            [
              30.099114,
              -1.937327
            ],
            [
              30.098467,
              -1.937301
            ],
            [
              30.097591,
              -1.936795
            ],
            [
              30.096437,
              -1.936203
            ],
            [
              30.096008,
              -1.936469
            ],
            [
              30.09762,
              -1.937194
            ],
            [
              30.098315,
              -1.937652
            ],
            [
              30.099011,
              -1.937667
            ],
            [
              30.099114,
              -1.937327
            ]
          ]
        ]
      }
    },
    {
      "type": "Feature",
      "properties": {
        "upi": "1/01/03/04/04/0010",
        "zoning": "restricted"
      },
      "geometry": {
        "type": "Polygon",
        "coordinates": [
          [
            [
              30.099192,
              -1.937316
            ],
            [
              30.099088,
              -1.937671
            ],
            [
              30.099932,
              -1.937966
            ],
            [
              30.10005,
              -1.938543
            ],
            [
              30.100568,
              -1.938365
            ],
            [
              30.100568,
              -1.937951
            ],
            [
              30.099946,
              -1.937419
            ],
            [
              30.099192,
              -1.937316
            ]
          ]
        ]
      }
    },
    {
      "type": "Feature",
      "properties": {
        "upi": "1/01/03/02/07/0011",
        "zoning": "commercial"
      },
      "geometry": {
        "type": "Polygon",
        "coordinates": [
          [
            [
              30.100099,
              -1.938662
            ],
            [
              30.100426,
              -1.939478
            ],
            [
              30.100446,
              -1.939978
            ],
            [
              30.100865,
              -1.940008
            ],
            [
              30.100916,
              -1.939488
            ],
            [
              30.100691,
              -1.938835
            ],
            [
              30.10064,
              -1.938458
            ],
            [
              30.100099,
              -1.938662
            ]
          ]
        ]
      }
    },
    {
      "type": "Feature",
      "properties": {
        "upi": "1/01/03/03/02/0012",
        "zoning": "residential"
      },
      "geometry": {
        "type": "Polygon",
        "coordinates": [
          [
            [
              30.101649,
              -1.935632
            ],
            [
              30.101592,
              -1.935677
            ],
            [
              30.101513,
              -1.936001
            ],
            [
              30.101513,
              -1.93612
            ],
            [
              30.101694,
              -1.936267
            ],
            [
              30.101961,
              -1.936591
            ],
            [
              30.102109,
              -1.936602
            ],
            [
              30.102387,
              -1.936506
            ],
            [
              30.102791,
              -1.936659
            ],
            [
              30.102785,
              -1.936267
            ],
            [
              30.10291,
              -1.935944
            ],
            [
              30.103006,
              -1.935604
            ],
            [
              30.102915,
              -1.935485
            ],
            [
              30.102649,
              -1.935434
            ],
            [
              30.102501,
              -1.935473
            ],
            [
              30.1024189,
              -1.9354598
            ],
            [
              30.1023445,
              -1.9354525
            ],
            [
              30.1022798,
              -1.935454
            ],
            [
              30.102223,
              -1.935468
            ],
            [
              30.102019,
              -1.935439
            ],
            [
              30.101933,
              -1.935581
            ],
            [
              30.101814,
              -1.935638
            ],
            [
              30.101649,
              -1.935632
            ]
          ]
        ]
      }
    },
    {
      "type": "Feature",
      "properties": {
        "upi": "1/01/03/02/02/0013",
        "zoning": "residential"
      },
      "geometry": {
        "type": "Polygon",
        "coordinates": [
          [
            [
              30.100605,
              -1.937918
            ],
            [
              30.100965,
              -1.939457
            ],
            [
              30.100998,
              -1.94003
            ],
            [
              30.100736,
              -1.941274
            ],
            [
              30.100523,
              -1.942158
            ],
            [
              30.100638,
              -1.942305
            ],
            [
              30.100933,
              -1.942174
            ],
            [
              30.101391,
              -1.941618
            ],
            [
              30.101752,
              -1.941028
            ],
            [
              30.101866,
              -1.94021
            ],
            [
              30.102505,
              -1.940193
            ],
            [
              30.101178,
              -1.937836
            ],
            [
              30.100605,
              -1.937918
            ]
          ]
        ]
      }
    },
    {
      "type": "Feature",
      "properties": {
        "upi": "1/01/03/03/07/0014",
        "zoning": "commercial"
      },
      "geometry": {
        "type": "Polygon",
        "coordinates": [
          [
            [
              30.1020971,
              -1.9391917
            ],
            [
              30.1025587,
              -1.9400017
            ],
            [
              30.1028196,
              -1.9399854
            ],
            [
              30.103441,
              -1.9400651
            ],
            [
              30.1036212,
              -1.9400798
            ],
            [
              30.1038078,
              -1.9400834
            ],
            [
              30.1039691,
              -1.9400798
            ],
            [
              30.1040778,
              -1.9400544
            ],
            [
              30.1041792,
              -1.9400074
            ],
            [
              30.1042988,
              -1.9399114
            ],
            [
              30.1043813,
              -1.9398061
            ],
            [
              30.1044556,
              -1.9396882
            ],
            [
              30.10453,
              -1.9393346
            ],
            [
              30.1045758,
              -1.9390147
            ],
            [
              30.1042919,
              -1.9389449
            ],
            [
              30.1041747,
              -1.9389144
            ],
            [
              30.1040802,
              -1.9389048
            ],
            [
              30.1039683,
              -1.9389048
            ],
            [
              30.1037318,
              -1.9388962
            ],
            [
              30.1034999,
              -1.9389111
            ],
            [
              30.1033199,
              -1.93892
            ],
            [
              30.1032822,
              -1.938923
            ],
            [
              30.1030779,
              -1.9388792
            ],
            [
              30.102958,
              -1.9388719
            ],
            [
              30.102837,
              -1.9388831
            ],
            [
              30.1026455,
              -1.9389431
            ],
            [
              30.1024291,
              -1.9390393
            ],
            [
              30.1020971,
              -1.9391917
            ]
          ]
        ]
      }
    },
    {
      "type": "Feature",
      "properties": {
        "upi": "1/01/03/05/09/0015",
        "zoning": "restricted"
      },
      "geometry": {
        "type": "Polygon",
        "coordinates": [
          [
            [
              30.10262,
              -1.94003
            ],
            [
              30.103029,
              -1.940619
            ],
            [
              30.103357,
              -1.941454
            ],
            [
              30.103815,
              -1.941241
            ],
            [
              30.103455,
              -1.940095
            ],
            [
              30.10262,
              -1.94003
            ]
          ]
        ]
      }
    },
    {
      "type": "Feature",
      "properties": {
        "upi": "1/01/03/04/02/0016",
        "zoning": "mixed_use"
      },
      "geometry": {
        "type": "Polygon",
        "coordinates": [
          [
            [
              30.101457,
              -1.941601
            ],
            [
              30.102079,
              -1.942092
            ],
            [
              30.102702,
              -1.941519
            ],
            [
              30.103144,
              -1.941257
            ],
            [
              30.102947,
              -1.940783
            ],
            [
              30.102669,
              -1.940684
            ],
            [
              30.102587,
              -1.940275
            ],
            [
              30.101915,
              -1.940341
            ],
            [
              30.101833,
              -1.941045
            ],
            [
              30.101457,
              -1.941601
            ]
          ]
        ]
      }
    },
    {
      "type": "Feature",
      "properties": {
        "upi": "1/01/03/05/06/0017",
        "zoning": "mixed_use"
      },
      "geometry": {
        "type": "Polygon",
        "coordinates": [
          [
            [
              30.1033356,
              -1.9382545
            ],
            [
              30.1037347,
              -1.9384275
            ],
            [
              30.103791,
              -1.9385246
            ],
            [
              30.1038318,
              -1.9386431
            ],
            [
              30.1039101,
              -1.9388688
            ],
            [
              30.1040869,
              -1.9388746
            ],
            [
              30.1043998,
              -1.9389293
            ],
            [
              30.1045125,
              -1.9389215
            ],
            [
              30.1046174,
              -1.9388937
            ],
            [
              30.1047217,
              -1.9388474
            ],
            [
              30.104826,
              -1.9387721
            ],
            [
              30.1051882,
              -1.9385086
            ],
            [
              30.1049347,
              -1.9379362
            ],
            [
              30.1048193,
              -1.9376583
            ],
            [
              30.1047584,
              -1.9375222
            ],
            [
              30.1047179,
              -1.9374759
            ],
            [
              30.1046742,
              -1.9374416
            ],
            [
              30.104596,
              -1.93743
            ],
            [
              30.1045206,
              -1.9374502
            ],
            [
              30.1043642,
              -1.9375168
            ],
            [
              30.1039292,
              -1.9377072
            ],
            [
              30.1039852,
              -1.9378828
            ],
            [
              30.1040335,
              -1.9380656
            ],
            [
              30.1038439,
              -1.9379646
            ],
            [
              30.1036582,
              -1.9378485
            ],
            [
              30.1035612,
              -1.9379429
            ],
            [
              30.1034807,
              -1.9380501
            ],
            [
              30.1033356,
              -1.9382545
            ]
          ]
        ]
      }
    },
    {
      "type": "Feature",
      "properties": {},
      "geometry": {
        "type": "Polygon",
        "coordinates": [
          [
            [
              30.0995682,
              -1.9326098
            ],
            [
              30.0995807,
              -1.9326044
            ],
            [
              30.0995995,
              -1.932599
            ],
            [
              30.0996557,
              -1.9326026
            ],
            [
              30.0997531,
              -1.9326008
            ],
            [
              30.0999408,
              -1.9326009
            ],
            [
              30.1002966,
              -1.9326033
            ],
            [
              30.1003099,
              -1.9326059
            ],
            [
              30.1003217,
              -1.932616
            ],
            [
              30.1003271,
              -1.9326332
            ],
            [
              30.1003306,
              -1.9326653
            ],
            [
              30.1003625,
              -1.932962
            ],
            [
              30.1004699,
              -1.9333958
            ],
            [
              30.1005224,
              -1.9336169
            ],
            [
              30.1005447,
              -1.933724
            ],
            [
              30.1005661,
              -1.9338355
            ],
            [
              30.1005647,
              -1.9338669
            ],
            [
              30.1005567,
              -1.9339008
            ],
            [
              30.1005281,
              -1.9339347
            ],
            [
              30.1005031,
              -1.9339517
            ],
            [
              30.1004466,
              -1.9339887
            ],
            [
              30.1004136,
              -1.9339985
            ],
            [
              30.1003109,
              -1.9340315
            ],
            [
              30.1001234,
              -1.9340752
            ],
            [
              30.0998288,
              -1.9341154
            ],
            [
              30.0997549,
              -1.9337222
            ],
            [
              30.0997185,
              -1.9335222
            ],
            [
              30.0996829,
              -1.9333213
            ],
            [
              30.0996137,
              -1.9329617
            ],
            [
              30.0995807,
              -1.9327722
            ],
            [
              30.0995638,
              -1.9326856
            ],
            [
              30.0995575,
              -1.9326499
            ],
            [
              30.0995566,
              -1.9326312
            ],
            [
              30.0995682,
              -1.9326098
            ]
          ]
        ]
      }
    },
    {
      "type": "Feature",
      "properties": {},
      "geometry": {
        "type": "Polygon",
        "coordinates": [
          [
            [
              30.0994683,
              -1.935852
            ],
            [
              30.0998354,
              -1.9356084
            ],
            [
              30.1000361,
              -1.9354193
            ],
            [
              30.1002282,
              -1.9352072
            ],
            [
              30.100039,
              -1.9350151
            ],
            [
              30.0999644,
              -1.9349034
            ],
            [
              30.0998755,
              -1.9345967
            ],
            [
              30.0997235,
              -1.934697
            ],
            [
              30.0995916,
              -1.9347916
            ],
            [
              30.0994167,
              -1.9349148
            ],
            [
              30.0992303,
              -1.935061
            ],
            [
              30.0990955,
              -1.9351584
            ],
            [
              30.0989923,
              -1.9352301
            ],
            [
              30.0991672,
              -1.9354737
            ],
            [
              30.0993593,
              -1.935746
            ],
            [
              30.0994683,
              -1.935852
            ]
          ]
        ]
      }
    },
    {
      "type": "Feature",
      "properties": {},
      "geometry": {
        "type": "Polygon",
        "coordinates": [
          [
            [
              30.1013262,
              -1.933991
            ],
            [
              30.1014454,
              -1.9340595
            ],
            [
              30.1015671,
              -1.9341076
            ],
            [
              30.1017395,
              -1.9340975
            ],
            [
              30.1017533,
              -1.9341547
            ],
            [
              30.1017284,
              -1.9341879
            ],
            [
              30.1017892,
              -1.9342944
            ],
            [
              30.1018224,
              -1.9344326
            ],
            [
              30.1015444,
              -1.9346206
            ],
            [
              30.1013769,
              -1.9348624
            ],
            [
              30.1011985,
              -1.9349841
            ],
            [
              30.1010643,
              -1.9350615
            ],
            [
              30.1008854,
              -1.9351673
            ],
            [
              30.1007775,
              -1.9352364
            ],
            [
              30.1006682,
              -1.9352558
            ],
            [
              30.100476,
              -1.9353263
            ],
            [
              30.1002685,
              -1.9352074
            ],
            [
              30.1005907,
              -1.9350003
            ],
            [
              30.1009047,
              -1.934804
            ],
            [
              30.1011274,
              -1.9346298
            ],
            [
              30.1012245,
              -1.9345309
            ],
            [
              30.101302,
              -1.9343498
            ],
            [
              30.1013241,
              -1.9341687
            ],
            [
              30.1013262,
              -1.933991
            ]
          ]
        ]
      }
    },
    {
      "type": "Feature",
      "properties": {},
      "geometry": {
        "type": "Polygon",
        "coordinates": [
          [
            [
              30.1005072,
              -1.9353471
            ],
            [
              30.10075,
              -1.9352706
            ],
            [
              30.100787,
              -1.9352706
            ],
            [
              30.1010218,
              -1.9351387
            ],
            [
              30.1014044,
              -1.9348829
            ],
            [
              30.101568,
              -1.9346482
            ],
            [
              30.1018161,
              -1.9344557
            ],
            [
              30.1018478,
              -1.9345559
            ],
            [
              30.1019137,
              -1.9346508
            ],
            [
              30.1019507,
              -1.934722
            ],
            [
              30.1018134,
              -1.934759
            ],
            [
              30.1016683,
              -1.9348433
            ],
            [
              30.1015812,
              -1.9349066
            ],
            [
              30.1015205,
              -1.9350174
            ],
            [
              30.1014651,
              -1.9350596
            ],
            [
              30.1013622,
              -1.9351625
            ],
            [
              30.1011142,
              -1.9353682
            ],
            [
              30.1010667,
              -1.9354209
            ],
            [
              30.1010113,
              -1.9354367
            ],
            [
              30.1009928,
              -1.9354104
            ],
            [
              30.1009189,
              -1.935413
            ],
            [
              30.1009031,
              -1.9354394
            ],
            [
              30.1005072,
              -1.9353471
            ]
          ]
        ]
      }
    },
    {
      "type": "Feature",
      "properties": {},
      "geometry": {
        "type": "Polygon",
        "coordinates": [
          [
            [
              30.0998222,
              -1.9341433
            ],
            [
              30.1001342,
              -1.9341005
            ],
            [
              30.1004214,
              -1.934031
            ],
            [
              30.1005604,
              -1.9339523
            ],
            [
              30.1005975,
              -1.9338412
            ],
            [
              30.1006716,
              -1.9339153
            ],
            [
              30.1008965,
              -1.9341941
            ],
            [
              30.1012774,
              -1.9342898
            ],
            [
              30.1012191,
              -1.9344812
            ],
            [
              30.1010797,
              -1.9346185
            ],
            [
              30.100889,
              -1.9347766
            ],
            [
              30.1006392,
              -1.9349305
            ],
            [
              30.1003644,
              -1.9350949
            ],
            [
              30.1002582,
              -1.9351885
            ],
            [
              30.1000646,
              -1.934995
            ],
            [
              30.0999605,
              -1.9347807
            ],
            [
              30.0998752,
              -1.9344125
            ],
            [
              30.0998222,
              -1.9341433
            ]
          ]
        ]
      }
    },
    {
      "type": "Feature",
      "properties": {},
      "geometry": {
        "type": "Polygon",
        "coordinates": [
          [
            [
              30.1004314,
              -1.9331256
            ],
            [
              30.1007164,
              -1.9333207
            ],
            [
              30.100958,
              -1.933333
            ],
            [
              30.1011055,
              -1.9336097
            ],
            [
              30.1012232,
              -1.9337955
            ],
            [
              30.1013019,
              -1.933977
            ],
            [
              30.101283,
              -1.9342675
            ],
            [
              30.1009206,
              -1.9341715
            ],
            [
              30.1006015,
              -1.9338062
            ],
            [
              30.1005068,
              -1.9334113
            ],
            [
              30.1004314,
              -1.9331256
            ]
          ]
        ]
      }
    },
    {
      "type": "Feature",
      "properties": {},
      "geometry": {
        "type": "Polygon",
        "coordinates": [
          [
            [
              30.1019497,
              -1.9347394
            ],
            [
              30.1019636,
              -1.9347591
            ],
            [
              30.101989,
              -1.9347768
            ],
            [
              30.1020245,
              -1.9348807
            ],
            [
              30.1020498,
              -1.9349289
            ],
            [
              30.1020473,
              -1.9349732
            ],
            [
              30.102079,
              -1.9350024
            ],
            [
              30.1020954,
              -1.9350606
            ],
            [
              30.102084,
              -1.9350733
            ],
            [
              30.1021895,
              -1.9354451
            ],
            [
              30.1020246,
              -1.9354248
            ],
            [
              30.1020081,
              -1.9354324
            ],
            [
              30.1019447,
              -1.9355414
            ],
            [
              30.1018966,
              -1.9355782
            ],
            [
              30.101643,
              -1.9354755
            ],
            [
              30.1014755,
              -1.9354551
            ],
            [
              30.1013297,
              -1.9354386
            ],
            [
              30.1011079,
              -1.9354377
            ],
            [
              30.1011257,
              -1.9353921
            ],
            [
              30.1012512,
              -1.9352857
            ],
            [
              30.1014921,
              -1.9350753
            ],
            [
              30.1014934,
              -1.9350601
            ],
            [
              30.1015417,
              -1.9350287
            ],
            [
              30.101581,
              -1.9349539
            ],
            [
              30.1016127,
              -1.9349095
            ],
            [
              30.1017141,
              -1.9348411
            ],
            [
              30.1018117,
              -1.9347778
            ],
            [
              30.1019497,
              -1.9347394
            ]
          ]
        ]
      }
    },
    {
      "type": "Feature",
      "properties": {},
      "geometry": {
        "type": "Polygon",
        "coordinates": [
          [
            [
              30.0989614,
              -1.9351766
            ],
            [
              30.0993088,
              -1.9349471
            ],
            [
              30.0995945,
              -1.9347455
            ],
            [
              30.0998522,
              -1.9345607
            ],
            [
              30.0996393,
              -1.9333568
            ],
            [
              30.0987653,
              -1.9333176
            ],
            [
              30.0986645,
              -1.9338496
            ],
            [
              30.0986589,
              -1.9345159
            ],
            [
              30.0987877,
              -1.9348519
            ],
            [
              30.0989614,
              -1.9351766
            ]
          ]
        ]
      }
    },
    {
      "type": "Feature",
      "properties": {},
      "geometry": {
        "type": "Polygon",
        "coordinates": [
          [
            [
              30.0996447,
              -1.9333058
            ],
            [
              30.099525,
              -1.9326694
            ],
            [
              30.0995312,
              -1.9326049
            ],
            [
              30.0995771,
              -1.9325744
            ],
            [
              30.0998471,
              -1.9325718
            ],
            [
              30.0998785,
              -1.9321212
            ],
            [
              30.0999345,
              -1.9318793
            ],
            [
              30.0999906,
              -1.9317342
            ],
            [
              30.0990787,
              -1.9316426
            ],
            [
              30.0987505,
              -1.9332638
            ],
            [
              30.0996447,
              -1.9333058
            ]
          ]
        ]
      }
    },
    {
      "type": "Feature",
      "properties": {},
      "geometry": {
        "type": "Polygon",
        "coordinates": [
          [
            [
              30.1026291,
              -1.9354152
            ],
            [
              30.1025346,
              -1.9352986
            ],
            [
              30.1025257,
              -1.9352351
            ],
            [
              30.1025375,
              -1.9352101
            ],
            [
              30.1025434,
              -1.9350831
            ],
            [
              30.1025863,
              -1.93512
            ],
            [
              30.1026512,
              -1.9351495
            ],
            [
              30.1026601,
              -1.9351687
            ],
            [
              30.1026379,
              -1.9352499
            ],
            [
              30.1026158,
              -1.9353281
            ],
            [
              30.1026291,
              -1.9354152
            ]
          ]
        ]
      }
    },
    {
      "type": "Feature",
      "properties": {},
      "geometry": {
        "type": "Polygon",
        "coordinates": [
          [
            [
              30.1020808,
              -1.9349873
            ],
            [
              30.1022483,
              -1.9349799
            ],
            [
              30.1023144,
              -1.9349495
            ],
            [
              30.1023307,
              -1.9349769
            ],
            [
              30.1023673,
              -1.9350114
            ],
            [
              30.102537,
              -1.9350744
            ],
            [
              30.1025309,
              -1.9352044
            ],
            [
              30.1025187,
              -1.9352329
            ],
            [
              30.1025275,
              -1.9353029
            ],
            [
              30.102623,
              -1.9354197
            ],
            [
              30.1024878,
              -1.9354627
            ],
            [
              30.1024124,
              -1.9354497
            ],
            [
              30.1023477,
              -1.9354415
            ],
            [
              30.1022782,
              -1.9354426
            ],
            [
              30.1022185,
              -1.9354552
            ],
            [
              30.102156,
              -1.9352199
            ],
            [
              30.1021235,
              -1.935092
            ],
            [
              30.1021144,
              -1.9350686
            ],
            [
              30.1021012,
              -1.9350605
            ],
            [
              30.1020808,
              -1.9349873
            ]
          ]
        ]
      }
    }
  ]
}